{
  "type": "FeatureCollection",
  "features": [
    {
      "type": "Feature",
      "properties": {
        "norad_id": 24876,
        "name": "GPS BIIR-2  (PRN 13)",
        "group": "gps-ops",
        "lat": 30.614584569185432,
        "lon": -97.53514568625164,
        "alt_km": 20153.973528932314,
        "timestamp": "2025-12-06T22:38:42.987264+00:00",
        "meta_object_name": "GPS BIIR-2  (PRN 13)",
        "meta_object_id": "1997-035A",
        "meta_epoch": "2025-12-05T18:03:38.663712",
        "meta_mean_motion": 2.00563458,
        "meta_eccentricity": 0.00967066,
        "meta_inclination": 55.8919,
        "meta_ra_of_asc_node": 106.1422,
        "meta_arg_of_pericenter": 57.0175,
        "meta_mean_anomaly": 303.8711,
        "meta_ephemeris_type": 0,
        "meta_classification_type": "U",
        "meta_norad_cat_id": 24876,
        "meta_element_set_no": 999,
        "meta_rev_at_epoch": 20807,
        "meta_bstar": 0,
        "meta_mean_motion_dot": 4e-08,
        "meta_mean_motion_ddot": 0,
        "tle_line1": "1 24876U 97035A   25339.75253083  .00000004  00000+0  00000+0 0  9998",
        "tle_line2": "2 24876  55.8919 106.1422 0096706  57.0175 303.8711  2.00563458208078"
      },
      "geometry": {
        "type": "Point",
        "coordinates": [
          -97.53514568625164,
          30.614584569185432
        ]
      }
    },
    {
      "type": "Feature",
      "properties": {
        "norad_id": 26360,
        "name": "GPS BIIR-4  (PRN 20)",
        "group": "gps-ops",
        "lat": -40.649527464577616,
        "lon": -116.01897311226755,
        "alt_km": 20084.461605353332,
        "timestamp": "2025-12-06T22:38:42.987291+00:00",
        "meta_object_name": "GPS BIIR-4  (PRN 20)",
        "meta_object_id": "2000-025A",
        "meta_epoch": "2025-12-06T06:26:54.384864",
        "meta_mean_motion": 2.00568091,
        "meta_eccentricity": 0.00388254,
        "meta_inclination": 55.0413,
        "meta_ra_of_asc_node": 27.0997,
        "meta_arg_of_pericenter": 241.3684,
        "meta_mean_anomaly": 224.0568,
        "meta_ephemeris_type": 0,
        "meta_classification_type": "U",
        "meta_norad_cat_id": 26360,
        "meta_element_set_no": 999,
        "meta_rev_at_epoch": 18740,
        "meta_bstar": 0,
        "meta_mean_motion_dot": -7.8e-07,
        "meta_mean_motion_ddot": 0,
        "tle_line1": "1 26360U 00025A   25340.26868501 -.00000078  00000+0  00000+0 0  9998",
        "tle_line2": "2 26360  55.0413  27.0997 0038825 241.3684 224.0568  2.00568091187403"
      },
      "geometry": {
        "type": "Point",
        "coordinates": [
          -116.01897311226755,
          -40.649527464577616
        ]
      }
    },
    {
      "type": "Feature",
      "properties": {
        "norad_id": 26407,
        "name": "GPS BIIR-5  (PRN 22)",
        "group": "gps-ops",
        "lat": 51.60199482196965,
        "lon": -74.70829537678043,
        "alt_km": 20395.715566981144,
        "timestamp": "2025-12-06T22:38:42.987307+00:00",
        "meta_object_name": "GPS BIIR-5  (PRN 22)",
        "meta_object_id": "2000-040A",
        "meta_epoch": "2025-12-06T02:15:28.524096",
        "meta_mean_motion": 2.00567762,
        "meta_eccentricity": 0.01263695,
        "meta_inclination": 54.8924,
        "meta_ra_of_asc_node": 222.8334,
        "meta_arg_of_pericenter": 301.6877,
        "meta_mean_anomaly": 237.2417,
        "meta_ephemeris_type": 0,
        "meta_classification_type": "U",
        "meta_norad_cat_id": 26407,
        "meta_element_set_no": 999,
        "meta_rev_at_epoch": 18607,
        "meta_bstar": 0,
        "meta_mean_motion_dot": 4.6e-07,
        "meta_mean_motion_ddot": 0,
        "tle_line1": "1 26407U 00040A   25340.09408014  .00000046  00000+0  00000+0 0  9991",
        "tle_line2": "2 26407  54.8924 222.8334 0126369 301.6877 237.2417  2.00567762186079"
      },
      "geometry": {
        "type": "Point",
        "coordinates": [
          -74.70829537678043,
          51.60199482196965
        ]
      }
    },
    {
      "type": "Feature",
      "properties": {
        "norad_id": 27663,
        "name": "GPS BIIR-8  (PRN 16)",
        "group": "gps-ops",
        "lat": -23.183047692549785,
        "lon": 60.114342846285226,
        "alt_km": 20544.108336748155,
        "timestamp": "2025-12-06T22:38:42.987321+00:00",
        "meta_object_name": "GPS BIIR-8  (PRN 16)",
        "meta_object_id": "2003-005A",
        "meta_epoch": "2025-12-06T16:05:33.383328",
        "meta_mean_motion": 2.00571142,
        "meta_eccentricity": 0.01472147,
        "meta_inclination": 54.9248,
        "meta_ra_of_asc_node": 222.6198,
        "meta_arg_of_pericenter": 51.718,
        "meta_mean_anomaly": 319.2598,
        "meta_ephemeris_type": 0,
        "meta_classification_type": "U",
        "meta_norad_cat_id": 27663,
        "meta_element_set_no": 999,
        "meta_rev_at_epoch": 16745,
        "meta_bstar": 0,
        "meta_mean_motion_dot": 3.9e-07,
        "meta_mean_motion_ddot": 0,
        "tle_line1": "1 27663U 03005A   25340.67052527  .00000039  00000+0  00000+0 0  9990",
        "tle_line2": "2 27663  54.9248 222.6198 0147214  51.7180 319.2598  2.00571142167451"
      },
      "geometry": {
        "type": "Point",
        "coordinates": [
          60.114342846285226,
          -23.183047692549785
        ]
      }
    },
    {
      "type": "Feature",
      "properties": {
        "norad_id": 28190,
        "name": "GPS BIIR-11 (PRN 19)",
        "group": "gps-ops",
        "lat": 5.457705137787345,
        "lon": -72.73243806532349,
        "alt_km": 20453.465363269785,
        "timestamp": "2025-12-06T22:38:42.987334+00:00",
        "meta_object_name": "GPS BIIR-11 (PRN 19)",
        "meta_object_id": "2004-009A",
        "meta_epoch": "2025-12-06T01:17:13.122240",
        "meta_mean_motion": 2.0056089,
        "meta_eccentricity": 0.01082534,
        "meta_inclination": 54.9918,
        "meta_ra_of_asc_node": 283.4884,
        "meta_arg_of_pericenter": 167.5282,
        "meta_mean_anomaly": 276.9875,
        "meta_ephemeris_type": 0,
        "meta_classification_type": "U",
        "meta_norad_cat_id": 28190,
        "meta_element_set_no": 999,
        "meta_rev_at_epoch": 15907,
        "meta_bstar": 0,
        "meta_mean_motion_dot": -3.9e-07,
        "meta_mean_motion_ddot": 0,
        "tle_line1": "1 28190U 04009A   25340.05362410 -.00000039  00000+0  00000+0 0  9999",
        "tle_line2": "2 28190  54.9918 283.4884 0108253 167.5282 276.9875  2.00560890159071"
      },
      "geometry": {
        "type": "Point",
        "coordinates": [
          -72.73243806532349,
          5.457705137787345
        ]
      }
    },
    {
      "type": "Feature",
      "properties": {
        "norad_id": 28474,
        "name": "GPS BIIR-13 (PRN 02)",
        "group": "gps-ops",
        "lat": 49.95567387234371,
        "lon": 28.33208215944836,
        "alt_km": 20396.081200458353,
        "timestamp": "2025-12-06T22:38:42.987346+00:00",
        "meta_object_name": "GPS BIIR-13 (PRN 02)",
        "meta_object_id": "2004-045A",
        "meta_epoch": "2025-12-05T20:20:11.876352",
        "meta_mean_motion": 2.0056901,
        "meta_eccentricity": 0.01706228,
        "meta_inclination": 55.2441,
        "meta_ra_of_asc_node": 332.6831,
        "meta_arg_of_pericenter": 308.9503,
        "meta_mean_anomaly": 46.5475,
        "meta_ephemeris_type": 0,
        "meta_classification_type": "U",
        "meta_norad_cat_id": 28474,
        "meta_element_set_no": 999,
        "meta_rev_at_epoch": 15454,
        "meta_bstar": 0,
        "meta_mean_motion_dot": -7.7e-07,
        "meta_mean_motion_ddot": 0,
        "tle_line1": "1 28474U 04045A   25339.84735968 -.00000077  00000+0  00000+0 0  9993",
        "tle_line2": "2 28474  55.2441 332.6831 0170622 308.9503  46.5475  2.00569010154543"
      },
      "geometry": {
        "type": "Point",
        "coordinates": [
          28.33208215944836,
          49.95567387234371
        ]
      }
    },
    {
      "type": "Feature",
      "properties": {
        "norad_id": 28874,
        "name": "GPS BIIRM-1 (PRN 17)",
        "group": "gps-ops",
        "lat": 22.053342907111155,
        "lon": -62.64096154157522,
        "alt_km": 20197.18114381261,
        "timestamp": "2025-12-06T22:38:42.987358+00:00",
        "meta_object_name": "GPS BIIRM-1 (PRN 17)",
        "meta_object_id": "2005-038A",
        "meta_epoch": "2025-12-06T00:39:47.683008",
        "meta_mean_motion": 2.00593123,
        "meta_eccentricity": 0.01317527,
        "meta_inclination": 55.0379,
        "meta_ra_of_asc_node": 280.9712,
        "meta_arg_of_pericenter": 293.1135,
        "meta_mean_anomaly": 151.2056,
        "meta_ephemeris_type": 0,
        "meta_classification_type": "U",
        "meta_norad_cat_id": 28874,
        "meta_element_set_no": 999,
        "meta_rev_at_epoch": 14796,
        "meta_bstar": 0,
        "meta_mean_motion_dot": -3.6e-07,
        "meta_mean_motion_ddot": 0,
        "tle_line1": "1 28874U 05038A   25340.02763522 -.00000036  00000+0  00000+0 0  9994",
        "tle_line2": "2 28874  55.0379 280.9712 0131752 293.1135 151.2056  2.00593123147964"
      },
      "geometry": {
        "type": "Point",
        "coordinates": [
          -62.64096154157522,
          22.053342907111155
        ]
      }
    }
  ]
}